start=new Date('2022-09-03T00:00:00.000Z').valueOf();
sats=[{"OBJECT_TYPE":"PAYLOAD","GP_ID":"211587918","REV_AT_EPOCH":"8293","PERIAPSIS":"546.280","COUNTRY_CODE":"US","RA_OF_ASC_NODE":"265.2485","DECAY_DATE":null,"MEAN_ANOMALY":"286.5704","REF_FRAME":"TEME","TLE_LINE1":"1 47829U 21018AU  22245.79506861  .00001185  00000-0  98447-4 0  9990","CENTER_NAME":"EARTH","MEAN_MOTION":"15.06406222","EPHEMERIS_TYPE":"0","FILE":"3555599","SITE":"AFETR","MEAN_MOTION_DOT":"0.00001185","EPOCH":"2022-09-02T19:04:53.927904","MEAN_ELEMENT_THEORY":"SGP4","NORAD_CAT_ID":"47829","ECCENTRICITY":"0.00013200","CLASSIFICATION_TYPE":"U","TLE_LINE2":"2 47829  53.0536 265.2485 0001320  73.5430 286.5704 15.06406222 82936","MEAN_MOTION_DDOT":"0.0000000000000","LAUNCH_DATE":"2021-03-11","ELEMENT_SET_NO":"999","BSTAR":"0.00009844700000","SEMIMAJOR_AXIS":"6925.329","PERIOD":"95.592","TIME_SYSTEM":"UTC","APOAPSIS":"548.109","RCS_SIZE":"LARGE","ARG_OF_PERICENTER":"73.5430","OBJECT_NAME":"STARLINK-2416","OBJECT_ID":"2021-018AU","INCLINATION":"53.0536"},{"BSTAR":"0.00013581000000","SEMIMAJOR_AXIS":"6925.331","ELEMENT_SET_NO":"999","LAUNCH_DATE":"2021-03-11","MEAN_MOTION_DDOT":"0.0000000000000","INCLINATION":"53.0528","OBJECT_ID":"2021-018AV","OBJECT_NAME":"STARLINK-2419","ARG_OF_PERICENTER":"63.2456","TIME_SYSTEM":"UTC","APOAPSIS":"548.130","PERIOD":"95.592","RCS_SIZE":"LARGE","MEAN_MOTION":"15.06405605","REF_FRAME":"TEME","TLE_LINE1":"1 47830U 21018AV  22245.32695518  .00001742  00000-0  13581-3 0  9993","CENTER_NAME":"EARTH","COUNTRY_CODE":"US","MEAN_ANOMALY":"296.8670","DECAY_DATE":null,"RA_OF_ASC_NODE":"267.3594","REV_AT_EPOCH":"8253","PERIAPSIS":"546.263","OBJECT_TYPE":"PAYLOAD","GP_ID":"211564591","CLASSIFICATION_TYPE":"U","ECCENTRICITY":"0.00013480","TLE_LINE2":"2 47830  53.0528 267.3594 0001348  63.2456 296.8670 15.06405605 82533","MEAN_MOTION_DOT":"0.00001742","NORAD_CAT_ID":"47830","EPOCH":"2022-09-02T07:50:48.927552","MEAN_ELEMENT_THEORY":"SGP4","FILE":"3555460","EPHEMERIS_TYPE":"0","SITE":"AFETR"},{"COUNTRY_CODE":"US","MEAN_ANOMALY":"286.1686","RA_OF_ASC_NODE":"242.0581","DECAY_DATE":null,"REV_AT_EPOCH":"8328","PERIAPSIS":"546.060","OBJECT_TYPE":"PAYLOAD","GP_ID":"211557107","MEAN_MOTION":"15.06406342","TLE_LINE1":"1 47831U 21018AW  22245.39377009  .00002424  00000-0  18155-3 0  9993","REF_FRAME":"TEME","CENTER_NAME":"EARTH","FILE":"3555279","EPHEMERIS_TYPE":"0","SITE":"AFETR","CLASSIFICATION_TYPE":"U","ECCENTRICITY":"0.00016370","TLE_LINE2":"2 47831  53.0520 242.0581 0001637  73.9483 286.1686 15.06406342 83282","MEAN_MOTION_DOT":"0.00002424","MEAN_ELEMENT_THEORY":"SGP4","NORAD_CAT_ID":"47831","EPOCH":"2022-09-02T09:27:01.735776","ELEMENT_SET_NO":"999","LAUNCH_DATE":"2021-03-11","MEAN_MOTION_DDOT":"0.0000000000000","BSTAR":"0.00018155000000","SEMIMAJOR_AXIS":"6925.329","ARG_OF_PERICENTER":"73.9483","TIME_SYSTEM":"UTC","APOAPSIS":"548.328","PERIOD":"95.592","RCS_SIZE":"LARGE","INCLINATION":"53.0520","OBJECT_NAME":"STARLINK-2420","OBJECT_ID":"2021-018AW"},{"MEAN_MOTION_DOT":"-0.00000080","MEAN_ELEMENT_THEORY":"SGP4","EPOCH":"2022-09-02T17:57:14.653728","NORAD_CAT_ID":"47832","CLASSIFICATION_TYPE":"U","ECCENTRICITY":"0.00014400","TLE_LINE2":"2 47832  53.0536 255.4625 0001440  76.5285 283.5864 15.06390777 83078","FILE":"3555599","EPHEMERIS_TYPE":"0","SITE":"AFETR","TLE_LINE1":"1 47832U 21018AX  22245.74808627 -.00000080  00000-0  13509-4 0  9994","REF_FRAME":"TEME","CENTER_NAME":"EARTH","MEAN_MOTION":"15.06390777","REV_AT_EPOCH":"8307","PERIAPSIS":"546.245","OBJECT_TYPE":"PAYLOAD","GP_ID":"211589657","COUNTRY_CODE":"US","MEAN_ANOMALY":"283.5864","RA_OF_ASC_NODE":"255.4625","DECAY_DATE":null,"OBJECT_ID":"2021-018AX","OBJECT_NAME":"STARLINK-2422","INCLINATION":"53.0536","APOAPSIS":"548.239","TIME_SYSTEM":"UTC","PERIOD":"95.593","RCS_SIZE":"LARGE","ARG_OF_PERICENTER":"76.5285","BSTAR":"0.00001350900000","SEMIMAJOR_AXIS":"6925.377","MEAN_MOTION_DDOT":"0.0000000000000","LAUNCH_DATE":"2021-03-11","ELEMENT_SET_NO":"999"},{"CLASSIFICATION_TYPE":"U","ECCENTRICITY":"0.00014060","TLE_LINE2":"2 47833  53.0529 256.5348 0001406  63.8121 296.3012 15.06390668 83093","MEAN_MOTION_DOT":"-0.00000840","MEAN_ELEMENT_THEORY":"SGP4","NORAD_CAT_ID":"47833","EPOCH":"2022-09-02T12:12:14.446656","FILE":"3555279","EPHEMERIS_TYPE":"0","SITE":"AFETR","MEAN_MOTION":"15.06390668","REF_FRAME":"TEME","TLE_LINE1":"1 47833U 21018AY  22245.50850054 -.00000840  00000-0 -37516-4 0  9999","CENTER_NAME":"EARTH","COUNTRY_CODE":"US","MEAN_ANOMALY":"296.3012","DECAY_DATE":null,"RA_OF_ASC_NODE":"256.5348","REV_AT_EPOCH":"8309","PERIAPSIS":"546.268","OBJECT_TYPE":"PAYLOAD","GP_ID":"211555628","INCLINATION":"53.0529","OBJECT_ID":"2021-018AY","OBJECT_NAME":"STARLINK-2423","ARG_OF_PERICENTER":"63.8121","APOAPSIS":"548.216","TIME_SYSTEM":"UTC","PERIOD":"95.593","RCS_SIZE":"LARGE","BSTAR":"-0.00003751600000","SEMIMAJOR_AXIS":"6925.377","ELEMENT_SET_NO":"999","LAUNCH_DATE":"2021-03-11","MEAN_MOTION_DDOT":"0.0000000000000"},{"BSTAR":"0.00012286000000","SEMIMAJOR_AXIS":"6925.358","LAUNCH_DATE":"2021-03-11","ELEMENT_SET_NO":"999","MEAN_MOTION_DDOT":"0.0000000000000","INCLINATION":"53.0537","OBJECT_ID":"2021-018AZ","OBJECT_NAME":"STARLINK-2424","ARG_OF_PERICENTER":"70.7195","APOAPSIS":"548.255","TIME_SYSTEM":"UTC","PERIOD":"95.592","RCS_SIZE":"LARGE","MEAN_MOTION":"15.06397073","TLE_LINE1":"1 47834U 21018AZ  22245.25415599  .00001549  00000-0  12286-3 0  9994","REF_FRAME":"TEME","CENTER_NAME":"EARTH","COUNTRY_CODE":"US","MEAN_ANOMALY":"289.3955","DECAY_DATE":null,"RA_OF_ASC_NODE":"257.6766","REV_AT_EPOCH":"8305","PERIAPSIS":"546.190","GP_ID":"211556880","OBJECT_TYPE":"PAYLOAD","CLASSIFICATION_TYPE":"U","ECCENTRICITY":"0.00014910","TLE_LINE2":"2 47834  53.0537 257.6766 0001491  70.7195 289.3955 15.06397073 83052","MEAN_MOTION_DOT":"0.00001549","EPOCH":"2022-09-02T06:05:59.077536","MEAN_ELEMENT_THEORY":"SGP4","NORAD_CAT_ID":"47834","FILE":"3555279","EPHEMERIS_TYPE":"0","SITE":"AFETR"},{"CENTER_NAME":"EARTH","REF_FRAME":"TEME","TLE_LINE1":"1 47835U 21018BA  22245.41405516  .00001501  00000-0  11968-3 0  9995","MEAN_MOTION":"15.06395491","REV_AT_EPOCH":"8294","PERIAPSIS":"546.298","OBJECT_TYPE":"PAYLOAD","GP_ID":"211556607","MEAN_ANOMALY":"282.0051","DECAY_DATE":null,"RA_OF_ASC_NODE":"262.0836","COUNTRY_CODE":"US","EPOCH":"2022-09-02T09:56:14.365824","MEAN_ELEMENT_THEORY":"SGP4","NORAD_CAT_ID":"47835","MEAN_MOTION_DOT":"0.00001501","TLE_LINE2":"2 47835  53.0546 262.0836 0001342  78.1088 282.0051 15.06395491 82945","CLASSIFICATION_TYPE":"U","ECCENTRICITY":"0.00013420","SITE":"AFETR","FILE":"3555279","EPHEMERIS_TYPE":"0","SEMIMAJOR_AXIS":"6925.362","BSTAR":"0.00011968000000","MEAN_MOTION_DDOT":"0.0000000000000","ELEMENT_SET_NO":"999","LAUNCH_DATE":"2021-03-11","OBJECT_ID":"2021-018BA","OBJECT_NAME":"STARLINK-2425","INCLINATION":"53.0546","RCS_SIZE":"LARGE","APOAPSIS":"548.157","TIME_SYSTEM":"UTC","PERIOD":"95.592","ARG_OF_PERICENTER":"78.1088"},{"INCLINATION":"53.0548","OBJECT_NAME":"STARLINK-2426","OBJECT_ID":"2021-018BB","ARG_OF_PERICENTER":"68.7997","RCS_SIZE":"LARGE","APOAPSIS":"548.239","TIME_SYSTEM":"UTC","PERIOD":"95.593","SEMIMAJOR_AXIS":"6925.376","BSTAR":"0.00002079600000","LAUNCH_DATE":"2021-03-11","ELEMENT_SET_NO":"999","MEAN_MOTION_DDOT":"0.0000000000000","TLE_LINE2":"2 47836  53.0548 257.3859 0001441  68.7997 291.3146 15.06391170 83011","CLASSIFICATION_TYPE":"U","ECCENTRICITY":"0.00014410","MEAN_ELEMENT_THEORY":"SGP4","EPOCH":"2022-09-02T08:08:05.642880","NORAD_CAT_ID":"47836","MEAN_MOTION_DOT":"0.00000028","SITE":"AFETR","FILE":"3555279","EPHEMERIS_TYPE":"0","MEAN_MOTION":"15.06391170","CENTER_NAME":"EARTH","REF_FRAME":"TEME","TLE_LINE1":"1 47836U 21018BB  22245.33895420  .00000028  00000-0  20796-4 0  9997","MEAN_ANOMALY":"291.3146","RA_OF_ASC_NODE":"257.3859","DECAY_DATE":null,"COUNTRY_CODE":"US","REV_AT_EPOCH":"8301","PERIAPSIS":"546.243","GP_ID":"211555879","OBJECT_TYPE":"PAYLOAD"},{"ELEMENT_SET_NO":"999","LAUNCH_DATE":"2021-03-11","MEAN_MOTION_DDOT":"0.0000000000000","BSTAR":"-0.00000272560000","SEMIMAJOR_AXIS":"6925.386","ARG_OF_PERICENTER":"57.6565","APOAPSIS":"548.339","TIME_SYSTEM":"UTC","PERIOD":"95.593","RCS_SIZE":"LARGE","INCLINATION":"53.0534","OBJECT_NAME":"STARLINK-2427","OBJECT_ID":"2021-018BC","COUNTRY_CODE":"US","MEAN_ANOMALY":"302.4576","DECAY_DATE":null,"RA_OF_ASC_NODE":"236.9549","REV_AT_EPOCH":"8331","PERIAPSIS":"546.163","OBJECT_TYPE":"PAYLOAD","GP_ID":"211556129","MEAN_MOTION":"15.06387861","TLE_LINE1":"1 47837U 21018BC  22245.41450729 -.00000322  00000-0 -27256-5 0  9994","REF_FRAME":"TEME","CENTER_NAME":"EARTH","FILE":"3555279","EPHEMERIS_TYPE":"0","SITE":"AFETR","CLASSIFICATION_TYPE":"U","ECCENTRICITY":"0.00015710","TLE_LINE2":"2 47837  53.0534 236.9549 0001571  57.6565 302.4576 15.06387861 83314","MEAN_MOTION_DOT":"-0.00000322","NORAD_CAT_ID":"47837","MEAN_ELEMENT_THEORY":"SGP4","EPOCH":"2022-09-02T09:56:53.429856"},{"BSTAR":"0.00011977000000","SEMIMAJOR_AXIS":"6925.337","LAUNCH_DATE":"2021-03-11","ELEMENT_SET_NO":"999","MEAN_MOTION_DDOT":"0.0000000000000","INCLINATION":"53.0546","OBJECT_NAME":"STARLINK-2429","OBJECT_ID":"2021-018BD","ARG_OF_PERICENTER":"57.5869","PERIOD":"95.592","TIME_SYSTEM":"UTC","APOAPSIS":"548.280","RCS_SIZE":"MEDIUM","MEAN_MOTION":"15.06403812","TLE_LINE1":"1 47838U 21018BD  22245.36104924  .00001503  00000-0  11977-3 0  9993","REF_FRAME":"TEME","CENTER_NAME":"EARTH","COUNTRY_CODE":"US","DECAY_DATE":null,"RA_OF_ASC_NODE":"257.2052","MEAN_ANOMALY":"302.5270","GP_ID":"211556380","OBJECT_TYPE":"PAYLOAD","PERIAPSIS":"546.124","REV_AT_EPOCH":"8301","ECCENTRICITY":"0.00015570","CLASSIFICATION_TYPE":"U","TLE_LINE2":"2 47838  53.0546 257.2052 0001557  57.5869 302.5270 15.06403812 83017","MEAN_MOTION_DOT":"0.00001503","NORAD_CAT_ID":"47838","EPOCH":"2022-09-02T08:39:54.654336","MEAN_ELEMENT_THEORY":"SGP4","EPHEMERIS_TYPE":"0","FILE":"3555279","SITE":"AFETR"}];
